[
    {
        "Altitude(m)": 604983.052888488,
        "Argument of Periapsis(deg)": 0.0,
        "Eccentricity": 0.0,
        "Inclination(deg)": 60.0,
        "Latitude(deg)": -0.09258051055532186,
        "Longitude(deg)": 40.0839165230254,
        "Mean Anomaly(deg)": -179.99999999999994,
        "RAAN(deg)": 320.0,
        "Satellite Name": "Test1 1419",
        "Satellite Number": 1419,
        "Semi-Major Axis(m)": 6980739.136638005,
        "Time(s)": 0
    },
    {
        "Altitude(m)": 605055.3318748438,
        "Argument of Periapsis(deg)": 0.00010418945913296404,
        "Eccentricity": 0.0,
        "Inclination(deg)": 60.0,
        "Latitude(deg)": -0.6329900277615859,
        "Longitude(deg)": 40.35204214328951,
        "Mean Anomaly(deg)": -179.37989385453818,
        "RAAN(deg)": 319.9995799508602,
        "Satellite Name": "Test1 1419",
        "Satellite Number": 1419,
        "Semi-Major Axis(m)": 6980739.136638005,
        "Time(s)": 10
    },
    {
        "Altitude(m)": 605130.8199173337,
        "Argument of Periapsis(deg)": 0.0002083789182659281,
        "Eccentricity": 0.0,
        "Inclination(deg)": 60.0,
        "Latitude(deg)": -1.1733686261592469,
        "Longitude(deg)": 40.620225395015375,
        "Mean Anomaly(deg)": -178.75978770907636,
        "RAAN(deg)": 319.9991599017205,
        "Satellite Name": "Test1 1419",
        "Satellite Number": 1419,
        "Semi-Major Axis(m)": 6980739.136638005,
        "Time(s)": 20
    },
    {
        "Altitude(m)": 605209.5060528505,
        "Argument of Periapsis(deg)": 0.00031256837739889213,
        "Eccentricity": 0.0,
        "Inclination(deg)": 60.0,
        "Latitude(deg)": -1.7136992252419354,
        "Longitude(deg)": 40.88852066600279,
        "Mean Anomaly(deg)": -178.13968156361454,
        "RAAN(deg)": 319.9987398525808,
        "Satellite Name": "Test1 1419",
        "Satellite Number": 1419,
        "Semi-Major Axis(m)": 6980739.136638005,
        "Time(s)": 30
    },
    {
        "Altitude(m)": 605291.3777943599,
        "Argument of Periapsis(deg)": 0.0004167578365318562,
        "Eccentricity": 0.0,
        "Inclination(deg)": 60.0,
        "Latitude(deg)": -2.25396472645288,
        "Longitude(deg)": 41.15698291183898,
        "Mean Anomaly(deg)": -177.51957541815267,
        "RAAN(deg)": 319.998319803441,
        "Satellite Name": "Test1 1419",
        "Satellite Number": 1419,
        "Semi-Major Axis(m)": 6980739.136638005,
        "Time(s)": 40
    },
    {
        "Altitude(m)": 605376.4211342243,
        "Argument of Periapsis(deg)": 0.0005209472956648203,
        "Eccentricity": 0.0,
        "Inclination(deg)": 60.0,
        "Latitude(deg)": -2.794148003274364,
        "Longitude(deg)": 41.42566667931891,
        "Mean Anomaly(deg)": -176.89946927269082,
        "RAAN(deg)": 319.9978997543013,
        "Satellite Name": "Test1 1419",
        "Satellite Number": 1419,
        "Semi-Major Axis(m)": 6980739.136638005,
        "Time(s)": 50
    },
    {
        "Altitude(m)": 605464.6205482782,
        "Argument of Periapsis(deg)": 0.0006251367547977843,
        "Eccentricity": 0.0,
        "Inclination(deg)": 60.0,
        "Latitude(deg)": -3.334231891275084,
        "Longitude(deg)": 41.69462664282141,
        "Mean Anomaly(deg)": -176.27936312722898,
        "RAAN(deg)": 319.99747970516154,
        "Satellite Name": "Test1 1419",
        "Satellite Number": 1419,
        "Semi-Major Axis(m)": 6980739.136638005,
        "Time(s)": 60
    },
    {
        "Altitude(m)": 605555.9590006411,
        "Argument of Periapsis(deg)": 0.0007293262139307483,
        "Eccentricity": 0.0,
        "Inclination(deg)": 60.0,
        "Latitude(deg)": -3.8741991781045737,
        "Longitude(deg)": 41.96391814079869,
        "Mean Anomaly(deg)": -175.6592569817672,
        "RAAN(deg)": 319.9970596560218,
        "Satellite Name": "Test1 1419",
        "Satellite Number": 1419,
        "Semi-Major Axis(m)": 6980739.136638005,
        "Time(s)": 70
    },
    {
        "Altitude(m)": 605650.4179492767,
        "Argument of Periapsis(deg)": 0.0008335156730637124,
        "Eccentricity": 0.0,
        "Inclination(deg)": 60.0,
        "Latitude(deg)": -4.414032593422197,
        "Longitude(deg)": 42.23359619953252,
        "Mean Anomaly(deg)": -175.0391508363053,
        "RAAN(deg)": 319.99663960688207,
        "Satellite Name": "Test1 1419",
        "Satellite Number": 1419,
        "Semi-Major Axis(m)": 6980739.136638005,
        "Time(s)": 80
    },
    {
        "Altitude(m)": 605747.9773523031,
        "Argument of Periapsis(deg)": 0.0009377051321966765,
        "Eccentricity": 0.0,
        "Inclination(deg)": 60.0,
        "Latitude(deg)": -4.9537147987435866,
        "Longitude(deg)": 42.50371606993375,
        "Mean Anomaly(deg)": -174.41904469084358,
        "RAAN(deg)": 319.9962195577423,
        "Satellite Name": "Test1 1419",
        "Satellite Number": 1419,
        "Semi-Major Axis(m)": 6980739.136638005,
        "Time(s)": 90
    },
    {
        "Altitude(m)": 605848.6156750249,
        "Argument of Periapsis(deg)": 0.0010418945913296407,
        "Eccentricity": 0.0,
        "Inclination(deg)": 60.0,
        "Latitude(deg)": -5.493228377193513,
        "Longitude(deg)": 42.774333764540984,
        "Mean Anomaly(deg)": -173.79893854538173,
        "RAAN(deg)": 319.99579950860254,
        "Satellite Name": "Test1 1419",
        "Satellite Number": 1419,
        "Semi-Major Axis(m)": 6980739.136638005,
        "Time(s)": 100
    },
    {
        "Altitude(m)": 605952.3098977152,
        "Argument of Periapsis(deg)": 0.0011460840504626045,
        "Eccentricity": 0.0,
        "Inclination(deg)": 60.0,
        "Latitude(deg)": -6.0325558231518865,
        "Longitude(deg)": 43.04550508187306,
        "Mean Anomaly(deg)": -173.1788323999199,
        "RAAN(deg)": 319.99537945946287,
        "Satellite Name": "Test1 1419",
        "Satellite Number": 1419,
        "Semi-Major Axis(m)": 6980739.136638005,
        "Time(s)": 110
    },
    {
        "Altitude(m)": 606059.035524123,
        "Argument of Periapsis(deg)": 0.0012502735095955685,
        "Eccentricity": 0.0,
        "Inclination(deg)": 60.0,
        "Latitude(deg)": -6.57167953177628,
        "Longitude(deg)": 43.3172861439116,
        "Mean Anomaly(deg)": -172.55872625445807,
        "RAAN(deg)": 319.9949594103231,
        "Satellite Name": "Test1 1419",
        "Satellite Number": 1419,
        "Semi-Major Axis(m)": 6980739.136638005,
        "Time(s)": 120
    },
    {
        "Altitude(m)": 606168.7665907152,
        "Argument of Periapsis(deg)": 0.0013544629687285324,
        "Eccentricity": 0.0,
        "Inclination(deg)": 60.0,
        "Latitude(deg)": -7.110581788387661,
        "Longitude(deg)": 43.58973393386928,
        "Mean Anomaly(deg)": -171.93862010899622,
        "RAAN(deg)": 319.99453936118334,
        "Satellite Name": "Test1 1419",
        "Satellite Number": 1419,
        "Semi-Major Axis(m)": 6980739.136638005,
        "Time(s)": 130
    },
    {
        "Altitude(m)": 606281.4756766068,
        "Argument of Periapsis(deg)": 0.0014586524278614966,
        "Eccentricity": 0.0,
        "Inclination(deg)": 60.0,
        "Latitude(deg)": -7.649244757708058,
        "Longitude(deg)": 43.86290532139991,
        "Mean Anomaly(deg)": -171.31851396353437,
        "RAAN(deg)": 319.9941193120436,
        "Satellite Name": "Test1 1419",
        "Satellite Number": 1419,
        "Semi-Major Axis(m)": 6980739.136638005,
        "Time(s)": 140
    },
    {
        "Altitude(m)": 606397.1339142626,
        "Argument of Periapsis(deg)": 0.0015628418869944607,
        "Eccentricity": 0.0,
        "Inclination(deg)": 60.0,
        "Latitude(deg)": -8.187650472930468,
        "Longitude(deg)": 44.13685760102543,
        "Mean Anomaly(deg)": -170.69840781807255,
        "RAAN(deg)": 319.9936992629039,
        "Satellite Name": "Test1 1419",
        "Satellite Number": 1419,
        "Semi-Major Axis(m)": 6980739.136638005,
        "Time(s)": 150
    },
    {
        "Altitude(m)": 606515.7110008496,
        "Argument of Periapsis(deg)": 0.0016670313461274247,
        "Eccentricity": 0.0,
        "Inclination(deg)": 60.0,
        "Latitude(deg)": -8.725780824608492,
        "Longitude(deg)": 44.411649030936275,
        "Mean Anomaly(deg)": -170.0783016726107,
        "RAAN(deg)": 319.99327921376414,
        "Satellite Name": "Test1 1419",
        "Satellite Number": 1419,
        "Semi-Major Axis(m)": 6980739.136638005,
        "Time(s)": 160
    },
    {
        "Altitude(m)": 606637.1752103418,
        "Argument of Periapsis(deg)": 0.0017712208052603888,
        "Eccentricity": 0.0,
        "Inclination(deg)": 60.0,
        "Latitude(deg)": -9.263617549353006,
        "Longitude(deg)": 44.68733785932116,
        "Mean Anomaly(deg)": -169.45819552714886,
        "RAAN(deg)": 319.99285916462435,
        "Satellite Name": "Test1 1419",
        "Satellite Number": 1419,
        "Semi-Major Axis(m)": 6980739.136638005,
        "Time(s)": 170
    },
    {
        "Altitude(m)": 606761.4934062858,
        "Argument of Periapsis(deg)": 0.001875410264393353,
        "Eccentricity": 0.0,
        "Inclination(deg)": 60.0,
        "Latitude(deg)": -9.801142218315546,
        "Longitude(deg)": 44.96398286400159,
        "Mean Anomaly(deg)": -168.838089381687,
        "RAAN(deg)": 319.9924391154846,
        "Satellite Name": "Test1 1419",
        "Satellite Number": 1419,
        "Semi-Major Axis(m)": 6980739.136638005,
        "Time(s)": 180
    },
    {
        "Altitude(m)": 606888.6310552872,
        "Argument of Periapsis(deg)": 0.0019795997235263173,
        "Eccentricity": 0.0,
        "Inclination(deg)": 60.0,
        "Latitude(deg)": -10.33833622544537,
        "Longitude(deg)": 45.241643892528224,
        "Mean Anomaly(deg)": -168.2179832362252,
        "RAAN(deg)": 319.99201906634494,
        "Satellite Name": "Test1 1419",
        "Satellite Number": 1419,
        "Semi-Major Axis(m)": 6980739.136638005,
        "Time(s)": 190
    }
]